TIANMU-1 07             
1 57399U 23101A   26065.57454230  .00008352  00000+0  29795-3 0  9991
2 57399  97.2728 118.5929 0004609 142.4105 217.7458 15.29118809145964
STARLINK-35924          
1 66516U 25265A   26068.93258843  .00041443  00000+0  15061-2 0  9998
2 66516  43.0005 276.3057 0002201 256.5279 103.5327 15.27601307 17156
